start=new Date('2021-10-07T00:00:00.000Z').valueOf();
sats=[{"PERIAPSIS":"546.649","MEAN_MOTION":"15.06388363","TLE_LINE2":"2 47899  53.0563 312.8486 0000866 114.7515 245.3565 15.06388363 32881","PERIOD":"95.593","SITE":"AFETR","OBJECT_TYPE":"PAYLOAD","ECCENTRICITY":"0.00008660","TIME_SYSTEM":"UTC","DECAY_DATE":null,"LAUNCH_DATE":"2021-03-14","TLE_LINE1":"1 47899U 21021AR  21279.41808861  .00001813  00000-0  14063-3 0  9990","RCS_SIZE":"LARGE","FILE":"3147912","REV_AT_EPOCH":"3288","MEAN_ANOMALY":"245.3565","MEAN_ELEMENT_THEORY":"SGP4","NORAD_CAT_ID":"47899","REF_FRAME":"TEME","OBJECT_ID":"2021-021AR","MEAN_MOTION_DOT":"0.00001813","ARG_OF_PERICENTER":"114.7515","APOAPSIS":"547.849","CENTER_NAME":"EARTH","GP_ID":"186364700","MEAN_MOTION_DDOT":"0.0000000000000","OBJECT_NAME":"STARLINK-2359","EPHEMERIS_TYPE":"0","COUNTRY_CODE":"US","BSTAR":"0.00014063000000","CLASSIFICATION_TYPE":"U","ELEMENT_SET_NO":"999","SEMIMAJOR_AXIS":"6925.384","INCLINATION":"53.0563","RA_OF_ASC_NODE":"312.8486","EPOCH":"2021-10-06T10:02:02.855904"},{"COUNTRY_CODE":"US","OBJECT_NAME":"STARLINK-2360","EPHEMERIS_TYPE":"0","MEAN_MOTION_DDOT":"0.0000000000000","CENTER_NAME":"EARTH","GP_ID":"186425252","APOAPSIS":"547.824","INCLINATION":"53.0571","SEMIMAJOR_AXIS":"6925.364","RA_OF_ASC_NODE":"321.8488","EPOCH":"2021-10-06T15:23:07.638432","ELEMENT_SET_NO":"999","BSTAR":"0.00017642000000","CLASSIFICATION_TYPE":"U","DECAY_DATE":null,"TIME_SYSTEM":"UTC","ECCENTRICITY":"0.00008600","TLE_LINE2":"2 47900  53.0571 321.8488 0000860 128.6245 231.4821 15.06395077 32772","MEAN_MOTION":"15.06395077","SITE":"AFETR","OBJECT_TYPE":"PAYLOAD","PERIOD":"95.592","PERIAPSIS":"546.633","OBJECT_ID":"2021-021AS","NORAD_CAT_ID":"47900","REF_FRAME":"TEME","ARG_OF_PERICENTER":"128.6245","MEAN_MOTION_DOT":"0.00002347","FILE":"3148521","MEAN_ELEMENT_THEORY":"SGP4","MEAN_ANOMALY":"231.4821","REV_AT_EPOCH":"3277","TLE_LINE1":"1 47900U 21021AS  21279.64106063  .00002347  00000-0  17642-3 0  9992","LAUNCH_DATE":"2021-03-14","RCS_SIZE":"LARGE"},{"REV_AT_EPOCH":"3286","MEAN_ELEMENT_THEORY":"SGP4","MEAN_ANOMALY":"248.6019","FILE":"3147912","MEAN_MOTION_DOT":"0.00001610","ARG_OF_PERICENTER":"111.5050","REF_FRAME":"TEME","NORAD_CAT_ID":"47901","OBJECT_ID":"2021-021AT","RCS_SIZE":"LARGE","LAUNCH_DATE":"2021-03-14","TLE_LINE1":"1 47901U 21021AT  21279.39870630  .00001610  00000-0  12694-3 0  9997","TIME_SYSTEM":"UTC","ECCENTRICITY":"0.00007510","DECAY_DATE":null,"PERIAPSIS":"546.717","PERIOD":"95.593","SITE":"AFETR","OBJECT_TYPE":"PAYLOAD","MEAN_MOTION":"15.06392220","TLE_LINE2":"2 47901  53.0490 312.9441 0000751 111.5050 248.6019 15.06392220 32863","ELEMENT_SET_NO":"999","EPOCH":"2021-10-06T09:34:08.224320","RA_OF_ASC_NODE":"312.9441","SEMIMAJOR_AXIS":"6925.372","INCLINATION":"53.0490","CLASSIFICATION_TYPE":"U","BSTAR":"0.00012694000000","MEAN_MOTION_DDOT":"0.0000000000000","OBJECT_NAME":"STARLINK-2361","EPHEMERIS_TYPE":"0","COUNTRY_CODE":"US","APOAPSIS":"547.757","CENTER_NAME":"EARTH","GP_ID":"186363701"},{"NORAD_CAT_ID":"47902","REF_FRAME":"TEME","OBJECT_ID":"2021-021AU","ARG_OF_PERICENTER":"84.2476","MEAN_MOTION_DOT":"-0.00000293","FILE":"3148521","REV_AT_EPOCH":"3271","MEAN_ANOMALY":"275.8640","MEAN_ELEMENT_THEORY":"SGP4","LAUNCH_DATE":"2021-03-14","TLE_LINE1":"1 47902U 21021AU  21279.52313507 -.00000293  00000-0 -76042-6 0  9996","RCS_SIZE":"LARGE","DECAY_DATE":null,"ECCENTRICITY":"0.00011170","TIME_SYSTEM":"UTC","TLE_LINE2":"2 47902  53.0554 332.3687 0001117  84.2476 275.8640 15.06385031 32716","MEAN_MOTION":"15.06385031","PERIOD":"95.593","OBJECT_TYPE":"PAYLOAD","SITE":"AFETR","PERIAPSIS":"546.486","SEMIMAJOR_AXIS":"6925.394","INCLINATION":"53.0554","EPOCH":"2021-10-06T12:33:18.870048","RA_OF_ASC_NODE":"332.3687","ELEMENT_SET_NO":"999","BSTAR":"-0.00000076042000","CLASSIFICATION_TYPE":"U","COUNTRY_CODE":"US","MEAN_MOTION_DDOT":"0.0000000000000","EPHEMERIS_TYPE":"0","OBJECT_NAME":"STARLINK-2362","APOAPSIS":"548.033","CENTER_NAME":"EARTH","GP_ID":"186424251"},{"TIME_SYSTEM":"UTC","ECCENTRICITY":"0.00006020","DECAY_DATE":null,"PERIAPSIS":"546.801","MEAN_MOTION":"15.06398581","TLE_LINE2":"2 47903  53.0565 312.5695 0000602  89.3163 270.7895 15.06398581 33222","SITE":"AFETR","OBJECT_TYPE":"PAYLOAD","PERIOD":"95.592","FILE":"3148521","MEAN_ELEMENT_THEORY":"SGP4","MEAN_ANOMALY":"270.7895","REV_AT_EPOCH":"3322","OBJECT_ID":"2021-021AV","NORAD_CAT_ID":"47903","REF_FRAME":"TEME","ARG_OF_PERICENTER":"89.3163","MEAN_MOTION_DOT":"-0.00000308","TLE_LINE1":"1 47903U 21021AV  21279.48074223 -.00000308  00000-0 -17869-5 0  9999","LAUNCH_DATE":"2021-03-14","RCS_SIZE":"LARGE","EPHEMERIS_TYPE":"0","OBJECT_NAME":"STARLINK-2363","MEAN_MOTION_DDOT":"0.0000000000000","COUNTRY_CODE":"US","CENTER_NAME":"EARTH","GP_ID":"186424501","APOAPSIS":"547.635","ELEMENT_SET_NO":"999","INCLINATION":"53.0565","SEMIMAJOR_AXIS":"6925.353","RA_OF_ASC_NODE":"312.5695","EPOCH":"2021-10-06T11:32:16.128672","CLASSIFICATION_TYPE":"U","BSTAR":"-0.00000178690000"},{"RCS_SIZE":"LARGE","TLE_LINE1":"1 47904U 21021AW  21279.47705188  .00000950  00000-0  82691-4 0  9995","LAUNCH_DATE":"2021-03-14","ARG_OF_PERICENTER":"98.7148","MEAN_MOTION_DOT":"0.00000950","OBJECT_ID":"2021-021AW","NORAD_CAT_ID":"47904","REF_FRAME":"TEME","MEAN_ELEMENT_THEORY":"SGP4","MEAN_ANOMALY":"261.3948","REV_AT_EPOCH":"3286","FILE":"3148521","OBJECT_TYPE":"PAYLOAD","SITE":"AFETR","PERIOD":"95.593","TLE_LINE2":"2 47904  53.0556 312.5803 0000946  98.7148 261.3948 15.06392972 32864","MEAN_MOTION":"15.06392972","PERIAPSIS":"546.580","DECAY_DATE":null,"TIME_SYSTEM":"UTC","ECCENTRICITY":"0.00009460","BSTAR":"0.00008269100000","CLASSIFICATION_TYPE":"U","RA_OF_ASC_NODE":"312.5803","EPOCH":"2021-10-06T11:26:57.282432","INCLINATION":"53.0556","SEMIMAJOR_AXIS":"6925.370","ELEMENT_SET_NO":"999","GP_ID":"186425752","CENTER_NAME":"EARTH","APOAPSIS":"547.890","COUNTRY_CODE":"US","OBJECT_NAME":"STARLINK-2364","EPHEMERIS_TYPE":"0","MEAN_MOTION_DDOT":"0.0000000000000"},{"BSTAR":"0.00001421100000","CLASSIFICATION_TYPE":"U","ELEMENT_SET_NO":"999","EPOCH":"2021-10-06T17:43:48.782784","RA_OF_ASC_NODE":"311.4076","SEMIMAJOR_AXIS":"6925.350","INCLINATION":"53.0561","CENTER_NAME":"EARTH","GP_ID":"186426003","APOAPSIS":"547.707","EPHEMERIS_TYPE":"0","OBJECT_NAME":"STARLINK-2365","MEAN_MOTION_DDOT":"0.0000000000000","COUNTRY_CODE":"US","RCS_SIZE":"LARGE","TLE_LINE1":"1 47905U 21021AX  21279.73875906 -.00000069  00000-0  14211-4 0  9996","LAUNCH_DATE":"2021-03-14","MEAN_ELEMENT_THEORY":"SGP4","MEAN_ANOMALY":"244.9378","REV_AT_EPOCH":"3303","FILE":"3148521","ARG_OF_PERICENTER":"115.1685","MEAN_MOTION_DOT":"-0.00000069","OBJECT_ID":"2021-021AX","NORAD_CAT_ID":"47905","REF_FRAME":"TEME","PERIAPSIS":"546.723","OBJECT_TYPE":"PAYLOAD","SITE":"AFETR","PERIOD":"95.592","TLE_LINE2":"2 47905  53.0561 311.4076 0000710 115.1685 244.9378 15.06399470 33034","MEAN_MOTION":"15.06399470","TIME_SYSTEM":"UTC","ECCENTRICITY":"0.00007100","DECAY_DATE":null},{"COUNTRY_CODE":"US","MEAN_MOTION_DDOT":"0.0000000000000","EPHEMERIS_TYPE":"0","OBJECT_NAME":"STARLINK-2366","APOAPSIS":"359.122","GP_ID":"186424751","CENTER_NAME":"EARTH","SEMIMAJOR_AXIS":"6732.708","INCLINATION":"53.0510","RA_OF_ASC_NODE":"279.3126","EPOCH":"2021-10-06T13:32:22.324128","ELEMENT_SET_NO":"999","CLASSIFICATION_TYPE":"U","BSTAR":"0.00025707000000","DECAY_DATE":null,"ECCENTRICITY":"0.00067570","TIME_SYSTEM":"UTC","MEAN_MOTION":"15.71513446","TLE_LINE2":"2 47906  53.0510 279.3126 0006757 328.7463  31.3151 15.71513446 33467","PERIOD":"91.631","OBJECT_TYPE":"PAYLOAD","SITE":"AFETR","PERIAPSIS":"350.024","NORAD_CAT_ID":"47906","REF_FRAME":"TEME","OBJECT_ID":"2021-021AY","MEAN_MOTION_DOT":"0.00033150","ARG_OF_PERICENTER":"328.7463","FILE":"3148521","REV_AT_EPOCH":"3346","MEAN_ANOMALY":"31.3151","MEAN_ELEMENT_THEORY":"SGP4","LAUNCH_DATE":"2021-03-14","TLE_LINE1":"1 47906U 21021AY  21279.56414727  .00033150  00000-0  25707-3 0  9995","RCS_SIZE":"LARGE"},{"TLE_LINE1":"1 47907U 21021AZ  21279.41623503 -.00000457  00000-0 -11770-4 0  9996","LAUNCH_DATE":"2021-03-14","RCS_SIZE":"LARGE","FILE":"3147912","MEAN_ANOMALY":"255.0058","MEAN_ELEMENT_THEORY":"SGP4","REV_AT_EPOCH":"3255","OBJECT_ID":"2021-021AZ","NORAD_CAT_ID":"47907","REF_FRAME":"TEME","MEAN_MOTION_DOT":"-0.00000457","ARG_OF_PERICENTER":"105.1054","PERIAPSIS":"546.482","TLE_LINE2":"2 47907  53.0573 332.8567 0001110 105.1054 255.0058 15.06387975 32556","MEAN_MOTION":"15.06387975","SITE":"AFETR","OBJECT_TYPE":"PAYLOAD","PERIOD":"95.593","ECCENTRICITY":"0.00011100","TIME_SYSTEM":"UTC","DECAY_DATE":null,"CLASSIFICATION_TYPE":"U","BSTAR":"-0.00001177000000","ELEMENT_SET_NO":"999","INCLINATION":"53.0573","SEMIMAJOR_AXIS":"6925.385","RA_OF_ASC_NODE":"332.8567","EPOCH":"2021-10-06T09:59:22.706592","CENTER_NAME":"EARTH","GP_ID":"186364701","APOAPSIS":"548.019","EPHEMERIS_TYPE":"0","OBJECT_NAME":"STARLINK-2367","MEAN_MOTION_DDOT":"0.0000000000000","COUNTRY_CODE":"US"},{"APOAPSIS":"547.998","CENTER_NAME":"EARTH","GP_ID":"186425253","COUNTRY_CODE":"US","MEAN_MOTION_DDOT":"0.0000000000000","EPHEMERIS_TYPE":"0","OBJECT_NAME":"STARLINK-2368","BSTAR":"0.00002183800000","CLASSIFICATION_TYPE":"U","INCLINATION":"53.0570","SEMIMAJOR_AXIS":"6925.385","RA_OF_ASC_NODE":"332.2253","EPOCH":"2021-10-06T13:21:04.940352","ELEMENT_SET_NO":"999","MEAN_MOTION":"15.06387967","TLE_LINE2":"2 47908  53.0570 332.2253 0001080 100.8387 259.2723 15.06387967 32609","PERIOD":"95.593","SITE":"AFETR","OBJECT_TYPE":"PAYLOAD","PERIAPSIS":"546.502","DECAY_DATE":null,"TIME_SYSTEM":"UTC","ECCENTRICITY":"0.00010800","LAUNCH_DATE":"2021-03-14","TLE_LINE1":"1 47908U 21021BA  21279.55630718  .00000044  00000-0  21838-4 0  9994","RCS_SIZE":"LARGE","NORAD_CAT_ID":"47908","REF_FRAME":"TEME","OBJECT_ID":"2021-021BA","ARG_OF_PERICENTER":"100.8387","MEAN_MOTION_DOT":"0.00000044","FILE":"3148521","REV_AT_EPOCH":"3260","MEAN_ANOMALY":"259.2723","MEAN_ELEMENT_THEORY":"SGP4"}];
